start=new Date('2022-07-05T00:00:00.000Z').valueOf();
sats=[{"CENTER_NAME":"EARTH","MEAN_ELEMENT_THEORY":"SGP4","OBJECT_TYPE":"PAYLOAD","GP_ID":"207419831","EPHEMERIS_TYPE":"0","MEAN_MOTION_DDOT":"0.0000000000000","REV_AT_EPOCH":"130","MEAN_ANOMALY":"27.7009","SEMIMAJOR_AXIS":"6840.888","OBJECT_NAME":"STARLINK-3812","EPOCH":"2022-07-04T22:00:00.999936","ELEMENT_SET_NO":"999","TLE_LINE2":"2 52346  53.2177 113.0889 0001622  41.6612  27.7009 15.34384082  1305","CLASSIFICATION_TYPE":"U","PERIOD":"93.849","BSTAR":"-0.02307000000000","LAUNCH_DATE":"2022-04-29","COUNTRY_CODE":"US","FILE":"3507746","MEAN_MOTION_DOT":"-0.00719290","DECAY_DATE":null,"NORAD_CAT_ID":"52346","TIME_SYSTEM":"UTC","RA_OF_ASC_NODE":"113.0889","PERIAPSIS":"461.643","RCS_SIZE":"LARGE","APOAPSIS":"463.862","ARG_OF_PERICENTER":"41.6612","INCLINATION":"53.2177","ECCENTRICITY":"0.00016220","OBJECT_ID":"2022-045R","TLE_LINE1":"1 52346U 22045R   22185.91667824 -.00719290  00000-0 -23070-1 0  9997","MEAN_MOTION":"15.34384082","SITE":"AFETR","REF_FRAME":"TEME"},{"MEAN_MOTION_DDOT":"0.0000000000000","GP_ID":"207420018","EPHEMERIS_TYPE":"0","MEAN_ELEMENT_THEORY":"SGP4","OBJECT_TYPE":"PAYLOAD","CENTER_NAME":"EARTH","MEAN_MOTION_DOT":"-0.00719349","FILE":"3507746","COUNTRY_CODE":"US","TLE_LINE2":"2 52347  53.2177 113.0647 0001529  44.8572 359.3392 15.33798231  1307","PERIOD":"93.885","CLASSIFICATION_TYPE":"U","BSTAR":"-0.02350800000000","ELEMENT_SET_NO":"999","LAUNCH_DATE":"2022-04-29","EPOCH":"2022-07-04T22:00:00.999936","MEAN_ANOMALY":"359.3392","REV_AT_EPOCH":"130","OBJECT_NAME":"STARLINK-3826","SEMIMAJOR_AXIS":"6842.629","RCS_SIZE":"LARGE","ARG_OF_PERICENTER":"44.8572","APOAPSIS":"465.541","INCLINATION":"53.2177","TIME_SYSTEM":"UTC","PERIAPSIS":"463.448","RA_OF_ASC_NODE":"113.0647","NORAD_CAT_ID":"52347","DECAY_DATE":null,"SITE":"AFETR","REF_FRAME":"TEME","OBJECT_ID":"2022-045S","TLE_LINE1":"1 52347U 22045S   22185.91667824 -.00719349  00000-0 -23508-1 0  9999","MEAN_MOTION":"15.33798231","ECCENTRICITY":"0.00015290"},{"CENTER_NAME":"EARTH","MEAN_ELEMENT_THEORY":"SGP4","OBJECT_TYPE":"PAYLOAD","GP_ID":"207420272","EPHEMERIS_TYPE":"0","MEAN_MOTION_DDOT":"0.0000000000000","MEAN_ANOMALY":"49.0938","REV_AT_EPOCH":"130","OBJECT_NAME":"STARLINK-3829","SEMIMAJOR_AXIS":"6839.710","EPOCH":"2022-07-04T22:00:00.999936","CLASSIFICATION_TYPE":"U","TLE_LINE2":"2 52348  53.2176 113.1055 0001789  36.2415  49.0938 15.34780333  1304","PERIOD":"93.825","BSTAR":"-0.02277000000000","ELEMENT_SET_NO":"999","LAUNCH_DATE":"2022-04-29","FILE":"3507746","MEAN_MOTION_DOT":"-0.00719048","COUNTRY_CODE":"US","DECAY_DATE":null,"NORAD_CAT_ID":"52348","TIME_SYSTEM":"UTC","RA_OF_ASC_NODE":"113.1055","PERIAPSIS":"460.351","RCS_SIZE":"LARGE","ARG_OF_PERICENTER":"36.2415","APOAPSIS":"462.799","INCLINATION":"53.2176","ECCENTRICITY":"0.00017890","OBJECT_ID":"2022-045T","TLE_LINE1":"1 52348U 22045T   22185.91667824 -.00719048  00000-0 -22770-1 0  9996","MEAN_MOTION":"15.34780333","SITE":"AFETR","REF_FRAME":"TEME"},{"REF_FRAME":"TEME","SITE":"AFETR","MEAN_MOTION":"15.34194609","OBJECT_ID":"2022-045U","TLE_LINE1":"1 52349U 22045U   22185.91667824 -.00719355  00000-0 -23212-1 0  9990","ECCENTRICITY":"0.00017030","INCLINATION":"53.2177","ARG_OF_PERICENTER":"37.9839","RCS_SIZE":"LARGE","APOAPSIS":"464.481","RA_OF_ASC_NODE":"113.0817","PERIAPSIS":"462.151","TIME_SYSTEM":"UTC","NORAD_CAT_ID":"52349","DECAY_DATE":null,"MEAN_MOTION_DOT":"-0.00719355","FILE":"3507746","COUNTRY_CODE":"US","LAUNCH_DATE":"2022-04-29","TLE_LINE2":"2 52349  53.2177 113.0817 0001703  37.9839  22.7324 15.34194609  1307","CLASSIFICATION_TYPE":"U","PERIOD":"93.860","BSTAR":"-0.02321200000000","ELEMENT_SET_NO":"999","EPOCH":"2022-07-04T22:00:00.999936","OBJECT_NAME":"STARLINK-3819","SEMIMAJOR_AXIS":"6841.451","MEAN_ANOMALY":"22.7324","REV_AT_EPOCH":"130","MEAN_MOTION_DDOT":"0.0000000000000","EPHEMERIS_TYPE":"0","GP_ID":"207419732","OBJECT_TYPE":"PAYLOAD","MEAN_ELEMENT_THEORY":"SGP4","CENTER_NAME":"EARTH"},{"LAUNCH_DATE":"2022-04-29","ELEMENT_SET_NO":"999","TLE_LINE2":"2 52350  53.2176 113.1137 0001770  37.3396  55.8438 15.34978509  1302","PERIOD":"93.812","BSTAR":"-0.02262100000000","CLASSIFICATION_TYPE":"U","COUNTRY_CODE":"US","MEAN_MOTION_DOT":"-0.00718907","FILE":"3507746","SEMIMAJOR_AXIS":"6839.121","OBJECT_NAME":"STARLINK-3754","REV_AT_EPOCH":"130","MEAN_ANOMALY":"55.8438","EPOCH":"2022-07-04T22:00:00.999936","EPHEMERIS_TYPE":"0","GP_ID":"207420184","MEAN_MOTION_DDOT":"0.0000000000000","CENTER_NAME":"EARTH","OBJECT_TYPE":"PAYLOAD","MEAN_ELEMENT_THEORY":"SGP4","MEAN_MOTION":"15.34978509","OBJECT_ID":"2022-045V","TLE_LINE1":"1 52350U 22045V   22185.91667824 -.00718907  00000-0 -22621-1 0  9997","REF_FRAME":"TEME","SITE":"AFETR","ECCENTRICITY":"0.00017700","RA_OF_ASC_NODE":"113.1137","PERIAPSIS":"459.776","TIME_SYSTEM":"UTC","INCLINATION":"53.2176","APOAPSIS":"462.197","RCS_SIZE":"LARGE","ARG_OF_PERICENTER":"37.3396","DECAY_DATE":null,"NORAD_CAT_ID":"52350"},{"REF_FRAME":"TEME","SITE":"AFETR","MEAN_MOTION":"15.34582229","OBJECT_ID":"2022-045W","TLE_LINE1":"1 52351U 22045W   22185.91667824 -.00719207  00000-0 -22921-1 0  9995","ECCENTRICITY":"0.00016850","INCLINATION":"53.2176","RCS_SIZE":"LARGE","ARG_OF_PERICENTER":"39.5770","APOAPSIS":"463.316","RA_OF_ASC_NODE":"113.0974","PERIAPSIS":"461.011","TIME_SYSTEM":"UTC","NORAD_CAT_ID":"52351","DECAY_DATE":null,"FILE":"3507746","MEAN_MOTION_DOT":"-0.00719207","COUNTRY_CODE":"US","LAUNCH_DATE":"2022-04-29","PERIOD":"93.837","TLE_LINE2":"2 52351  53.2176 113.0974 0001685  39.5770  37.8179 15.34582229  1308","CLASSIFICATION_TYPE":"U","BSTAR":"-0.02292100000000","ELEMENT_SET_NO":"999","EPOCH":"2022-07-04T22:00:00.999936","OBJECT_NAME":"STARLINK-3816","SEMIMAJOR_AXIS":"6840.299","MEAN_ANOMALY":"37.8179","REV_AT_EPOCH":"130","MEAN_MOTION_DDOT":"0.0000000000000","EPHEMERIS_TYPE":"0","GP_ID":"207420370","OBJECT_TYPE":"PAYLOAD","MEAN_ELEMENT_THEORY":"SGP4","CENTER_NAME":"EARTH"},{"OBJECT_NAME":"STARLINK-3838","SEMIMAJOR_AXIS":"6837.357","MEAN_ANOMALY":"78.5702","REV_AT_EPOCH":"130","EPOCH":"2022-07-04T22:00:00.999936","LAUNCH_DATE":"2022-04-29","BSTAR":"-0.02217400000000","TLE_LINE2":"2 52352  53.2176 113.1380 0001805  37.6025  78.5702 15.35572833  1302","PERIOD":"93.776","CLASSIFICATION_TYPE":"U","ELEMENT_SET_NO":"999","FILE":"3507746","MEAN_MOTION_DOT":"-0.00718352","COUNTRY_CODE":"US","CENTER_NAME":"EARTH","OBJECT_TYPE":"PAYLOAD","MEAN_ELEMENT_THEORY":"SGP4","EPHEMERIS_TYPE":"0","GP_ID":"207419921","MEAN_MOTION_DDOT":"0.0000000000000","ECCENTRICITY":"0.00018050","MEAN_MOTION":"15.35572833","OBJECT_ID":"2022-045X","TLE_LINE1":"1 52352U 22045X   22185.91667824 -.00718352  00000-0 -22174-1 0  9996","REF_FRAME":"TEME","SITE":"AFETR","DECAY_DATE":null,"NORAD_CAT_ID":"52352","RA_OF_ASC_NODE":"113.1380","PERIAPSIS":"457.987","TIME_SYSTEM":"UTC","INCLINATION":"53.2176","APOAPSIS":"460.456","RCS_SIZE":"LARGE","ARG_OF_PERICENTER":"37.6025"},{"ECCENTRICITY":"0.00018070","SITE":"AFETR","REF_FRAME":"TEME","TLE_LINE1":"1 52353U 22045Y   22185.91667824 -.00718719  00000-0 -22471-1 0  9994","OBJECT_ID":"2022-045Y","MEAN_MOTION":"15.35176580","NORAD_CAT_ID":"52353","DECAY_DATE":null,"RCS_SIZE":"LARGE","APOAPSIS":"461.634","ARG_OF_PERICENTER":"36.3746","INCLINATION":"53.2176","TIME_SYSTEM":"UTC","PERIAPSIS":"459.162","RA_OF_ASC_NODE":"113.1220","EPOCH":"2022-07-04T22:00:00.999936","REV_AT_EPOCH":"130","MEAN_ANOMALY":"64.5643","SEMIMAJOR_AXIS":"6838.533","OBJECT_NAME":"STARLINK-3807","COUNTRY_CODE":"US","MEAN_MOTION_DOT":"-0.00718719","FILE":"3507746","ELEMENT_SET_NO":"999","TLE_LINE2":"2 52353  53.2176 113.1220 0001807  36.3746  64.5643 15.35176580  1302","BSTAR":"-0.02247100000000","PERIOD":"93.800","CLASSIFICATION_TYPE":"U","LAUNCH_DATE":"2022-04-29","MEAN_ELEMENT_THEORY":"SGP4","OBJECT_TYPE":"PAYLOAD","CENTER_NAME":"EARTH","MEAN_MOTION_DDOT":"0.0000000000000","GP_ID":"207420084","EPHEMERIS_TYPE":"0"},{"GP_ID":"207419832","EPHEMERIS_TYPE":"0","MEAN_MOTION_DDOT":"0.0000000000000","CENTER_NAME":"EARTH","MEAN_ELEMENT_THEORY":"SGP4","OBJECT_TYPE":"PAYLOAD","ELEMENT_SET_NO":"999","PERIOD":"93.740","TLE_LINE2":"2 52354  53.2177 113.1613 0001586  48.8925  89.6905 15.36163283  1307","CLASSIFICATION_TYPE":"U","BSTAR":"-0.02173900000000","LAUNCH_DATE":"2022-04-29","COUNTRY_CODE":"US","MEAN_MOTION_DOT":"-0.00717824","FILE":"3507746","REV_AT_EPOCH":"130","MEAN_ANOMALY":"89.6905","SEMIMAJOR_AXIS":"6835.604","OBJECT_NAME":"STARLINK-3876","EPOCH":"2022-07-04T22:00:00.999936","TIME_SYSTEM":"UTC","PERIAPSIS":"456.385","RA_OF_ASC_NODE":"113.1613","RCS_SIZE":"MEDIUM","ARG_OF_PERICENTER":"48.8925","APOAPSIS":"458.554","INCLINATION":"53.2177","DECAY_DATE":null,"NORAD_CAT_ID":"52354","TLE_LINE1":"1 52354U 22045Z   22185.91667824 -.00717824  00000-0 -21739-1 0  9997","OBJECT_ID":"2022-045Z","MEAN_MOTION":"15.36163283","SITE":"AFETR","REF_FRAME":"TEME","ECCENTRICITY":"0.00015860"},{"INCLINATION":"53.2176","RCS_SIZE":"LARGE","ARG_OF_PERICENTER":"44.1952","APOAPSIS":"460.917","RA_OF_ASC_NODE":"113.1301","PERIAPSIS":"458.702","TIME_SYSTEM":"UTC","NORAD_CAT_ID":"52355","DECAY_DATE":null,"REF_FRAME":"TEME","SITE":"AFETR","MEAN_MOTION":"15.35374715","OBJECT_ID":"2022-045AA","TLE_LINE1":"1 52355U 22045AA  22185.91667824 -.00718566  00000-0 -22324-1 0  9993","ECCENTRICITY":"0.00016200","MEAN_MOTION_DDOT":"0.0000000000000","EPHEMERIS_TYPE":"0","GP_ID":"207420019","OBJECT_TYPE":"PAYLOAD","MEAN_ELEMENT_THEORY":"SGP4","CENTER_NAME":"EARTH","MEAN_MOTION_DOT":"-0.00718566","FILE":"3507746","COUNTRY_CODE":"US","LAUNCH_DATE":"2022-04-29","CLASSIFICATION_TYPE":"U","TLE_LINE2":"2 52355  53.2176 113.1301 0001620  44.1952  64.4068 15.35374715  1303","PERIOD":"93.788","BSTAR":"-0.02232400000000","ELEMENT_SET_NO":"999","EPOCH":"2022-07-04T22:00:00.999936","OBJECT_NAME":"STARLINK-3877","SEMIMAJOR_AXIS":"6837.945","MEAN_ANOMALY":"64.4068","REV_AT_EPOCH":"130"}];
